{
  "type": "FeatureCollection",
  "features": [
    {
      "type": "Feature",
      "properties": {
        "norad_id": 33886,
        "name": "IRIDIUM 33 DEB",
        "group": "iridium-33-debris",
        "lat": -44.33721393887302,
        "lon": -109.8269269488923,
        "alt_km": 769.7363265076356,
        "timestamp": "2025-12-14T03:55:53.172418+00:00",
        "meta_object_name": "IRIDIUM 33 DEB",
        "meta_object_id": "1997-051BF",
        "meta_epoch": "2025-12-13T07:07:22.747584",
        "meta_mean_motion": 14.36053313,
        "meta_eccentricity": 0.00123433,
        "meta_inclination": 86.383,
        "meta_ra_of_asc_node": 66.9944,
        "meta_arg_of_pericenter": 239.9736,
        "meta_mean_anomaly": 184.9432,
        "meta_ephemeris_type": 0,
        "meta_classification_type": "U",
        "meta_norad_cat_id": 33886,
        "meta_element_set_no": 999,
        "meta_rev_at_epoch": 88060,
        "meta_bstar": 0.0003088149,
        "meta_mean_motion_dot": 9.18e-06,
        "meta_mean_motion_ddot": 0,
        "tle_line1": "1 33886U 97051BF  25347.29679106  .00000918  00000+0  30881-3 0  9991",
        "tle_line2": "2 33886  86.3830  66.9944 0012343 239.9736 184.9432 14.36053313880600"
      },
      "geometry": {
        "type": "Point",
        "coordinates": [
          -109.8269269488923,
          -44.33721393887302
        ]
      }
    },
    {
      "type": "Feature",
      "properties": {
        "norad_id": 33887,
        "name": "IRIDIUM 33 DEB",
        "group": "iridium-33-debris",
        "lat": 13.271058118220552,
        "lon": -178.0946687698714,
        "alt_km": 767.013827984867,
        "timestamp": "2025-12-14T03:55:53.172429+00:00",
        "meta_object_name": "IRIDIUM 33 DEB",
        "meta_object_id": "1997-051BG",
        "meta_epoch": "2025-12-13T07:10:25.497408",
        "meta_mean_motion": 14.37221847,
        "meta_eccentricity": 0.00044851,
        "meta_inclination": 86.3045,
        "meta_ra_of_asc_node": 3.1513,
        "meta_arg_of_pericenter": 224.2117,
        "meta_mean_anomaly": 150.2384,
        "meta_ephemeris_type": 0,
        "meta_classification_type": "U",
        "meta_norad_cat_id": 33887,
        "meta_element_set_no": 999,
        "meta_rev_at_epoch": 88173,
        "meta_bstar": 0.00022245622,
        "meta_mean_motion_dot": 6.82e-06,
        "meta_mean_motion_ddot": 0,
        "tle_line1": "1 33887U 97051BG  25347.29890622  .00000682  00000+0  22246-3 0  9994",
        "tle_line2": "2 33887  86.3045   3.1513 0004485 224.2117 150.2384 14.37221847881739"
      },
      "geometry": {
        "type": "Point",
        "coordinates": [
          -178.0946687698714,
          13.271058118220552
        ]
      }
    },
    {
      "type": "Feature",
      "properties": {
        "norad_id": 33953,
        "name": "IRIDIUM 33 DEB",
        "group": "iridium-33-debris",
        "lat": 64.77534695703378,
        "lon": -134.55221687125146,
        "alt_km": 689.5559965636148,
        "timestamp": "2025-12-14T03:55:53.172439+00:00",
        "meta_object_name": "IRIDIUM 33 DEB",
        "meta_object_id": "1997-051BN",
        "meta_epoch": "2025-12-13T04:24:05.697792",
        "meta_mean_motion": 14.55334643,
        "meta_eccentricity": 0.00183369,
        "meta_inclination": 86.3845,
        "meta_ra_of_asc_node": 53.5865,
        "meta_arg_of_pericenter": 101.5193,
        "meta_mean_anomaly": 280.0666,
        "meta_ephemeris_type": 0,
        "meta_classification_type": "U",
        "meta_norad_cat_id": 33953,
        "meta_element_set_no": 999,
        "meta_rev_at_epoch": 88310,
        "meta_bstar": 0.0017454245,
        "meta_mean_motion_dot": 7.608e-05,
        "meta_mean_motion_ddot": 0,
        "tle_line1": "1 33953U 97051BN  25347.18339928  .00007608  00000+0  17454-2 0  9992",
        "tle_line2": "2 33953  86.3845  53.5865 0018336 101.5193 280.0666 14.55334643883108"
      },
      "geometry": {
        "type": "Point",
        "coordinates": [
          -134.55221687125146,
          64.77534695703378
        ]
      }
    },
    {
      "type": "Feature",
      "properties": {
        "norad_id": 33960,
        "name": "IRIDIUM 33 DEB",
        "group": "iridium-33-debris",
        "lat": 71.90159487311271,
        "lon": -59.58934283185346,
        "alt_km": 600.6567841165433,
        "timestamp": "2025-12-14T03:55:53.172450+00:00",
        "meta_object_name": "IRIDIUM 33 DEB",
        "meta_object_id": "1997-051BV",
        "meta_epoch": "2025-12-13T07:18:21.170016",
        "meta_mean_motion": 14.85250874,
        "meta_eccentricity": 0.00074314,
        "meta_inclination": 86.253,
        "meta_ra_of_asc_node": 289.2483,
        "meta_arg_of_pericenter": 61.837,
        "meta_mean_anomaly": 98.2531,
        "meta_ephemeris_type": 0,
        "meta_classification_type": "U",
        "meta_norad_cat_id": 33960,
        "meta_element_set_no": 999,
        "meta_rev_at_epoch": 88875,
        "meta_bstar": 0.00543303,
        "meta_mean_motion_dot": 0.00046916,
        "meta_mean_motion_ddot": 0,
        "tle_line1": "1 33960U 97051BV  25347.30441169  .00046916  00000+0  54330-2 0  9994",
        "tle_line2": "2 33960  86.2530 289.2483 0007431  61.8370  98.2531 14.85250874888751"
      },
      "geometry": {
        "type": "Point",
        "coordinates": [
          -59.58934283185346,
          71.90159487311271
        ]
      }
    },
    {
      "type": "Feature",
      "properties": {
        "norad_id": 33966,
        "name": "IRIDIUM 33 DEB",
        "group": "iridium-33-debris",
        "lat": -31.612102078314134,
        "lon": -132.3585368167052,
        "alt_km": 728.3977423594142,
        "timestamp": "2025-12-14T03:55:53.172461+00:00",
        "meta_object_name": "IRIDIUM 33 DEB",
        "meta_object_id": "1997-051CB",
        "meta_epoch": "2025-12-13T05:44:28.996800",
        "meta_mean_motion": 14.49599093,
        "meta_eccentricity": 0.00074858,
        "meta_inclination": 86.3926,
        "meta_ra_of_asc_node": 45.8128,
        "meta_arg_of_pericenter": 186.3749,
        "meta_mean_anomaly": 243.2399,
        "meta_ephemeris_type": 0,
        "meta_classification_type": "U",
        "meta_norad_cat_id": 33966,
        "meta_element_set_no": 999,
        "meta_rev_at_epoch": 88449,
        "meta_bstar": 0.00088628726,
        "meta_mean_motion_dot": 3.422e-05,
        "meta_mean_motion_ddot": 0,
        "tle_line1": "1 33966U 97051CB  25347.23922450  .00003422  00000+0  88629-3 0  9993",
        "tle_line2": "2 33966  86.3926  45.8128 0007485 186.3749 243.2399 14.49599093884491"
      },
      "geometry": {
        "type": "Point",
        "coordinates": [
          -132.3585368167052,
          -31.612102078314134
        ]
      }
    },
    {
      "type": "Feature",
      "properties": {
        "norad_id": 34071,
        "name": "IRIDIUM 33 DEB",
        "group": "iridium-33-debris",
        "lat": -81.88890070457393,
        "lon": -9.42942634046347,
        "alt_km": 741.8346302612426,
        "timestamp": "2025-12-14T03:55:53.172472+00:00",
        "meta_object_name": "IRIDIUM 33 DEB",
        "meta_object_id": "1997-051CE",
        "meta_epoch": "2025-12-13T03:27:38.801376",
        "meta_mean_motion": 14.49468179,
        "meta_eccentricity": 0.00099339,
        "meta_inclination": 86.3461,
        "meta_ra_of_asc_node": 17.6526,
        "meta_arg_of_pericenter": 106.547,
        "meta_mean_anomaly": 253.6826,
        "meta_ephemeris_type": 0,
        "meta_classification_type": "U",
        "meta_norad_cat_id": 34071,
        "meta_element_set_no": 999,
        "meta_rev_at_epoch": 88340,
        "meta_bstar": 0.00089989744,
        "meta_mean_motion_dot": 3.466e-05,
        "meta_mean_motion_ddot": 0,
        "tle_line1": "1 34071U 97051CE  25347.14419909  .00003466  00000+0  89990-3 0  9991",
        "tle_line2": "2 34071  86.3461  17.6526 0009933 106.5470 253.6826 14.49468179883407"
      },
      "geometry": {
        "type": "Point",
        "coordinates": [
          -9.42942634046347,
          -81.88890070457393
        ]
      }
    },
    {
      "type": "Feature",
      "properties": {
        "norad_id": 34077,
        "name": "IRIDIUM 33 DEB",
        "group": "iridium-33-debris",
        "lat": -18.51232920034446,
        "lon": -127.90756615224508,
        "alt_km": 689.5216980168498,
        "timestamp": "2025-12-14T03:55:53.172483+00:00",
        "meta_object_name": "IRIDIUM 33 DEB",
        "meta_object_id": "1997-051CL",
        "meta_epoch": "2025-12-13T06:00:37.185696",
        "meta_mean_motion": 14.64852666,
        "meta_eccentricity": 0.00101841,
        "meta_inclination": 86.3861,
        "meta_ra_of_asc_node": 51.2821,
        "meta_arg_of_pericenter": 38.2594,
        "meta_mean_anomaly": 26.5563,
        "meta_ephemeris_type": 0,
        "meta_classification_type": "U",
        "meta_norad_cat_id": 34077,
        "meta_element_set_no": 999,
        "meta_rev_at_epoch": 88340,
        "meta_bstar": 0.0021526101,
        "meta_mean_motion_dot": 0.00011532,
        "meta_mean_motion_ddot": 0,
        "tle_line1": "1 34077U 97051CL  25347.25043039  .00011532  00000+0  21526-2 0  9999",
        "tle_line2": "2 34077  86.3861  51.2821 0010184  38.2594  26.5563 14.64852666883407"
      },
      "geometry": {
        "type": "Point",
        "coordinates": [
          -127.90756615224508,
          -18.51232920034446
        ]
      }
    }
  ]
}